CCSDS_OMM_VERS,COMMENT,CREATION_DATE,ORIGINATOR,OBJECT_NAME,OBJECT_ID,CENTER_NAME,REF_FRAME,TIME_SYSTEM,MEAN_ELEMENT_THEORY,EPOCH,MEAN_MOTION,ECCENTRICITY,INCLINATION,RA_OF_ASC_NODE,ARG_OF_PERICENTER,MEAN_ANOMALY,EPHEMERIS_TYPE,CLASSIFICATION_TYPE,NORAD_CAT_ID,ELEMENT_SET_NO,REV_AT_EPOCH,BSTAR,MEAN_MOTION_DOT,MEAN_MOTION_DDOT,SEMIMAJOR_AXIS,PERIOD,APOAPSIS,PERIAPSIS,OBJECT_TYPE,RCS_SIZE,COUNTRY_CODE,LAUNCH_DATE,SITE,DECAY_DATE,FILE,GP_ID,TLE_LINE0,TLE_LINE1,TLE_LINE2
3.0,GENERATED VIA SPACE-TRACK.ORG API,2004-08-16T23:12:44,18 SPCS,WESTFORD NEEDLES,1963-014AE,EARTH,TEME,UTC,SGP4,1981-02-23T09:18:15.701471,9.00844786,0.2671077,84.9999,219.5372,323.5092,22.3392,0,U,2497,999,62622,0.25721,0.00070013,0.0,9756.681,159.849,5984.631,772.461,DEBRIS,SMALL,US,1963-05-09,AFWTR,1981-03-30,34281,11796108,0 WESTFORD NEEDLES,1 02497U 63014 AE 81054.38768173  .00070013 +00000-0 +25721+0 0  9994,2 02497 084.9999 219.5372 2671077 323.5092 022.3392 09.00844786626220
3.0,GENERATED VIA SPACE-TRACK.ORG API,2004-08-17T14:44:12,18 SPCS,COSMOS 1461 DEB,1983-044BG,EARTH,TEME,UTC,SGP4,1990-11-30T11:22:55.180991,16.21101511,0.0010604,64.9867,115.7014,285.9999,73.0443,0,U,15801,999,29643,0.0043092,0.09186302,1.0513e-05,6594.704,88.828,223.562,209.576,DEBRIS,,,,,1990-12-01,34733,17671412,0 COSMOS 1461 DEB,1 15801U 83044 BG 90334.47424978  .09186302 +10513-4 +43092-2 0  9991,2 15801 064.9867 115.7014 0010604 285.9999 073.0443 16.21101511296432
3.0,GENERATED VIA SPACE-TRACK.ORG API,2005-04-25T10:07:34,18 SPCS,COSMOS 543 DEB,1973-002D,EARTH,TEME,UTC,SGP4,1973-01-24T15:56:37.778496,16.43063699,0.005008,64.9794,247.5857,79.9878,280.6906,0,U,6347,999,214,0.0,0.17831068,0.048787,6535.806,87.641,190.402,124.94,DEBRIS,,,,,1973-01-25,129569,41996134,0 COSMOS 543 DEB,1 06347U 73002  D 73024.66432614  .17831068 +48787-1 +00000-0 0  9999,2 06347 064.9794 247.5857 0050080 079.9878 280.6906 16.43063699002145
3.0,GENERATED VIA SPACE-TRACK.ORG API,2004-08-15T23:39:17,18 SPCS,COSMOS 629 DEB,1974-003D,EARTH,TEME,UTC,SGP4,1974-02-08T04:56:59.767584,16.35258675,0.0026154,62.833,239.977,41.5411,318.7685,0,U,7108,999,236,6.872e-06,0.0283784,0.0007125,6556.586,88.059,195.599,161.303,DEBRIS,,,,,1974-02-09,33984,9299764,0 COSMOS 629 DEB,1 07108U 74003  D 74039.20624731  .02837840 +07125-2 +06872-4 0  9994,2 07108 062.8330 239.9770 0026154 041.5411 318.7685 16.35258675002368
3.0,GENERATED VIA SPACE-TRACK.ORG API,2004-08-15T23:39:17,18 SPCS,THORAD DELTA 1 DEB,1974-033E,EARTH,TEME,UTC,SGP4,1974-05-18T10:18:22.255200,16.32203863,0.0039176,28.2813,198.7875,156.8143,203.4225,0,U,7304,999,17,0.0,0.1107838,0.0,6564.765,88.224,212.348,160.911,DEBRIS,,,,,1974-05-18,33984,9322472,0 THORAD DELTA 1 DEB,1 07304U 74033  E 74138.42942425  .11078380 +00000-0 +00000-0 0  9994,2 07304 028.2813 198.7875 0039176 156.8143 203.4225 16.32203863000179
3.0,GENERATED VIA SPACE-TRACK.ORG API,2022-01-21T18:21:03,18 SPCS,COSMOS 1408 DEB,1982-092QA,EARTH,TEME,UTC,SGP4,2022-01-13T14:42:04.421952,15.41114067,0.0088442,81.8234,62.9604,293.4947,65.702,0,U,49983,999,828,0.40678,0.22885875,0.0,6820.957,93.439,503.148,382.496,DEBRIS,SMALL,CIS,1982-09-16,PKMTR,2022-01-14,3279324,194331761,0 COSMOS 1408 DEB,1 49983U 82092QA  22013.61255118  .22885875  00000-0  40678+0 0  9990,2 49983  81.8234  62.9604 0088442 293.4947  65.7020 15.41114067  8280
3.0,GENERATED VIA SPACE-TRACK.ORG API,2010-02-17T11:03:02,18 SPCS,COSMOS 2421 DEB,2006-026HK,EARTH,TEME,UTC,SGP4,2010-02-12T01:26:14.942687,16.34525498,0.0011359,65.0592,176.9811,348.9389,11.9978,0,U,33006,999,10006,0.0011566,0.08377219,7.4848e-06,6558.547,88.098,187.862,172.962,DEBRIS,SMALL,CIS,2006-06-25,TTMTR,2010-02-12,845985,76449749,0 COSMOS 2421 DEB,1 33006U 06026HK  10043.05989517 +.08377219 +74848-5 +11566-2 0  9992,2 33006 065.0592 176.9811 0011359 348.9389 011.9978 16.34525498100066
3.0,GENERATED VIA SPACE-TRACK.ORG API,2004-08-16T23:15:56,18 SPCS,COSMOS 1260 DEB,1981-028AT,EARTH,TEME,UTC,SGP4,1982-06-24T09:27:42.086304,14.95203972,0.0193916,65.0628,190.8115,308.3284,50.2821,0,U,13236,999,665,8.995e-05,0.00030506,0.0,6959.881,96.307,716.709,446.782,DEBRIS,SMALL,CIS,1981-03-20,TTMTR,1982-09-28,34345,12903980,0 COSMOS 1260 DEB,1 13236U 81028 AT 82175.39423711  .00030506 +00000-0 +08995-3 0  9995,2 13236 065.0628 190.8115 0193916 308.3284 050.2821 14.95203972006653
3.0,GENERATED VIA SPACE-TRACK.ORG API,2004-08-15T23:39:05,18 SPCS,SATURN 5 DEB,1973-027C,EARTH,TEME,UTC,SGP4,1973-08-23T08:28:52.752576,15.69046402,0.001288,50.0441,228.2169,28.2741,331.8889,0,U,6635,999,1567,0.0,0.00193445,2.776e-07,6739.767,91.775,370.313,352.951,DEBRIS,,,,,1973-09-10,33980,9124520,0 SATURN 5 DEB,1 06635U 73027  C 73235.35338834  .00193445 +02776-5 +00000-0 0  9999,2 06635 050.0441 228.2169 0012880 028.2741 331.8889 15.69046402015675
3.0,GENERATED VIA SPACE-TRACK.ORG API,2004-05-28T19:03:59,18 SPCS,PSLV DEB,2001-049R,EARTH,TEME,UTC,SGP4,2002-06-06T17:53:44.215296,16.42265925,0.000934,97.3885,236.2955,300.175,60.315,0,U,27073,999,2516,0.0014452,0.3032819,2.4049e-06,6537.922,87.683,165.894,153.681,DEBRIS,SMALL,IND,2001-10-22,SRI,2002-06-06,6724,2939471,0 PSLV DEB,1 27073U 01049R   02157.74565064 +.30328190 +24049-5 +14452-2 0  9993,2 27073 097.3885 236.2955 0009340 300.1750 060.3150 16.42265925025166
3.0,GENERATED VIA SPACE-TRACK.ORG API,2015-10-16T16:01:13,18 SPCS,COSMOS 2251 DEB,1993-036AXN,EARTH,TEME,UTC,SGP4,2015-05-23T04:50:53.655360,14.99753568,0.0020003,73.9922,86.7672,258.3365,114.4355,0,U,36051,999,30157,0.012746,0.00161795,0.0,6945.794,96.015,581.552,553.765,DEBRIS,SMALL,CIS,1993-06-16,PKMTR,2015-09-28,1940559,101098872,0 COSMOS 2251 DEB,1 36051U 93036AXN 15143.20200990  .00161795  00000-0  12746-1 0  9992,2 36051  73.9922  86.7672 0020003 258.3365 114.4355 14.99753568301578
3.0,GENERATED VIA SPACE-TRACK.ORG API,2023-11-09T19:54:15,18 SPCS,PINA 2B,2016-066D,EARTH,TEME,UTC,SGP4,2023-11-08T08:03:54.256896,16.49213338,0.0008282,97.3344,339.0456,230.7301,129.3269,0,U,41844,999,39029,0.00021414,0.1642804,2.6725e-06,6519.545,87.314,146.809,136.01,PAYLOAD,MEDIUM,PRC,2016-11-09,JSC,2023-11-10,4080359,241589870,0 PINA 2B,1 41844U 16066D   23312.33604464  .16428040  26725-5  21414-3 0  9998,2 41844  97.3344 339.0456 0008282 230.7301 129.3269 16.49213338390294
3.0,GENERATED VIA SPACE-TRACK.ORG API,2004-08-16T23:12:32,18 SPCS,COSMOS 1207,1980-070A,EARTH,TEME,UTC,SGP4,1980-09-03T00:37:54.086879,16.20458595,0.0007114,82.3193,133.6223,58.7362,301.4944,0,U,11938,999,188,1.2877e-05,0.00206011,0.0,6596.448,88.863,223.005,213.62,PAYLOAD,,,,,1980-09-04,34277,11619290,0 COSMOS 1207,1 11938U 80070  A 80247.02632045  .00206011 +00000-0 +12877-4 0  9999,2 11938 082.3193 133.6223 0007114 058.7362 301.4944 16.20458595001881
3.0,GENERATED VIA SPACE-TRACK.ORG API,2005-04-29T09:15:42,18 SPCS,SL-3 R/B,1968-019B,EARTH,TEME,UTC,SGP4,1992-11-05T03:27:10.217663,16.48697414,0.0006153,81.1506,268.9311,243.5698,116.8481,0,U,3151,999,34933,0.0002257,0.15404608,-8.8e-06,6520.909,87.341,146.786,138.761,ROCKET BODY,LARGE,CIS,1968-03-14,PKMTR,1992-11-05,131233,45320205,0 SL-3 R/B,1 03151U 68019  B 92310.14386826  .15404608 -88000-5 +22570-3 0  9996,2 03151 081.1506 268.9311 0006153 243.5698 116.8481 16.48697414349336
3.0,GENERATED VIA SPACE-TRACK.ORG API,2022-05-16T06:56:12,18 SPCS,COSMOS 1408 DEB,1982-092AZM,EARTH,TEME,UTC,SGP4,2022-05-15T21:19:19.707456,16.16831519,0.0016474,82.5278,298.0581,295.6752,64.2833,0,U,51187,999,1948,0.0065904,0.10018367,-1.1871e-06,6606.306,89.063,239.054,217.287,DEBRIS,SMALL,CIS,1982-09-16,PKMTR,2022-05-15,3447998,203663814,0 COSMOS 1408 DEB,1 51187U 82092AZM 22135.88842254  .10018367 -11871-5  65904-2 0  9993,2 51187  82.5278 298.0581 0016474 295.6752  64.2833 16.16831519 19486
3.0,GENERATED VIA SPACE-TRACK.ORG API,2004-08-15T23:41:50,18 SPCS,COSMOS 1021,1978-057A,EARTH,TEME,UTC,SGP4,1978-06-22T13:42:42.677855,16.12784386,0.0109698,65.0282,18.0667,52.8899,308.4948,0,U,10939,999,197,0.0,0.00375783,0.0,6617.357,89.286,311.813,166.631,PAYLOAD,,,,,1978-06-23,34035,10516517,0 COSMOS 1021,1 10939U 78057  A 78173.57132729  .00375783 +00000-0 +00000-0 0  9994,2 10939 065.0282 018.0667 0109698 052.8899 308.4948 16.12784386001978
3.0,GENERATED VIA SPACE-TRACK.ORG API,2004-05-28T18:56:26,18 SPCS,PEGASUS DEB,1994-029GJ,EARTH,TEME,UTC,SGP4,2002-03-12T20:15:09.180000,16.14858201,0.0024286,81.7771,6.1778,137.3503,222.9674,0,U,24135,999,30218,0.025685,0.34883687,-1.3848e-06,6611.69,89.171,249.612,217.498,DEBRIS,SMALL,US,1994-05-19,AFWTR,2002-03-12,6573,2321266,0 PEGASUS DEB,1 24135U 94029GJ  02071.84385625 +.34883687 -13848-5 +25685-1 0  9994,2 24135 081.7771 006.1778 0024286 137.3503 222.9674 16.14858201302183
3.0,GENERATED VIA SPACE-TRACK.ORG API,2004-08-16T23:23:02,18 SPCS,SL-4 R/B,1985-072B,EARTH,TEME,UTC,SGP4,1985-08-22T05:44:48.402240,16.48095688,0.0022906,67.1518,159.8319,91.0464,269.3766,0,U,15960,999,91,0.00035212,0.30222827,2.6344e-05,6522.496,87.373,159.301,129.42,ROCKET BODY,,,,,1985-08-22,34487,14472788,0 SL-4 R/B,1 15960U 85072  B 85234.23944910  .30222827 +26344-4 +35212-3 0  9992,2 15960 067.1518 159.8319 0022906 091.0464 269.3766 16.48095688000914
3.0,GENERATED VIA SPACE-TRACK.ORG API,2023-03-10T03:15:38,18 SPCS,COSMOS 1408 DEB,1982-092BPP,EARTH,TEME,UTC,SGP4,2023-03-09T12:23:50.739072,16.34542996,0.0010787,82.567,359.4979,186.079,174.0377,0,U,51610,999,6266,0.0017183,0.11820529,-1.1852e-06,6558.496,88.098,187.436,173.287,DEBRIS,SMALL,CIS,1982-09-16,PKMTR,2023-03-11,3855951,227768920,0 COSMOS 1408 DEB,1 51610U 82092BPP 23068.51655948  .11820529 -11852-5  17183-2 0  9999,2 51610  82.5670 359.4979 0010787 186.0790 174.0377 16.34542996 62661
